{"type":"FeatureCollection","features":[{"type":"Feature","properties":{"name":"Чёрные Земли"},"geometry":{"type":"Polygon","coordinates":[[[46.0863435,45.9608538],[46.0977252,45.9533295],[46.1024216,45.9392851],[46.1116403,45.9172129],[46.1286959,45.8974378],[46.1426961,45.8816828],[46.1436077,45.8786733],[46.1428216,45.869791],[46.1409703,45.85553],[46.1481517,45.8384764],[46.1561822,45.8190906],[46.1764172,45.8076739],[46.2098319,45.7742559],[46.2339487,45.7499379],[46.2469644,45.7459955],[46.2978994,45.7302953],[46.3775865,45.7055916],[46.3863758,45.7027063],[46.4355578,45.678294],[46.4736535,45.6686369],[46.4777182,45.7004604],[46.4926631,45.7151329],[46.5075531,45.7298198],[46.5357867,45.7575171],[46.5396732,45.7639533],[46.5467644,45.7874736],[46.5498151,45.798013],[46.5285882,45.8007552],[46.4715661,45.8082007],[46.4449178,45.8116932],[46.4119318,45.8159581],[46.4009638,45.8251216],[46.3802208,45.8424947],[46.3680639,45.8528368],[46.3411995,45.8750949],[46.3323233,45.8825558],[46.3161552,45.8961467],[46.3026971,45.9079425],[46.2954323,45.9144253],[46.3007615,45.9314592],[46.3063041,45.9490573],[46.3106359,45.9630106],[46.3399323,45.9635177],[46.3829341,45.9642545],[46.4549294,45.9654482],[46.4540185,46.0048538],[46.4535185,46.0264783],[46.4531962,46.0416596],[46.4527156,46.061229],[46.4471925,46.0552921],[46.4436886,46.0565826],[46.4071615,46.0700356],[46.4020651,46.0708104],[46.3964123,46.0698113],[46.3887139,46.0688369],[46.3810157,46.0678619],[46.3738292,46.0668802],[46.3083328,46.0662245],[46.3047864,46.0676894],[46.3017512,46.0691484],[46.3024972,46.0791103],[46.301675,46.0876658],[46.3022956,46.0922878],[46.3045438,46.1008082],[46.3089664,46.114645],[46.3091012,46.1203408],[46.3083555,46.1321001],[46.3076449,46.135688],[46.298297,46.1342082],[46.2707709,46.1269419],[46.1749218,46.1309895],[46.1423659,46.064114],[46.1230283,46.0254866],[46.1111092,46.0025332],[46.0863435,45.9608538]]]}}]}